#dP2024  4  5  0  0  0.00000000      96 __u+U IGS20 FIT  IAC
## 2308 432000.00000000   900.00000000 60405 0.0000000000000
+  119   C06C07C08C09C10C11C12C13C14C16C19C20C21C22C23C24C25
+        C26C27C28C29C30C32C33C34C35C36C37C38C39C40C41C42C43
+        C44C45C46E02E03E04E05E07E08E09E10E11E12E13E15E18E19
+        E21E24E25E26E27E30E31E33E34E36G01G02G03G04G05G06G07
+        G08G09G10G11G12G13G14G15G16G17G18G19G20G21G22G23G24
+        G25G26G27G28G29G30G31G32J02J03J04R01R02R03R04R05R07
+        R08R09R11R12R13R14R15R16R17R18R19R20R21R22R24R25R26
++         9  7  8  9  7  6  7  9  7  9  6  7  7  7  7  6  6
++         6  7  8  7  8  8  7  7  6  7  7  9 10  6  8  5  5
++         7  6  8  6  5  6  5  6  6  6  8  4  5  5  4  5  7
++         6  5  5  5  6  7  6  5  6  6  5  6  5  5  5  6  7
++         6  5  5  8  5  5  6  4  5  6  8  6  5  7  5  5  5
++         5  6  6  5  5  6  5  5  8  8  0  8  6  6  5  6  6
++         5  7  6  7  7  7  6  6  7  5  9  6  6  6  7  7  6
%c M  cc GPS ccc cccc cccc cccc cccc ccccc ccccc ccccc ccccc
%c cc cc ccc ccc cccc cccc cccc cccc ccccc ccccc ccccc ccccc
%f  0.0000000  0.000000000  0.00000000000  0.000000000000000
%f  0.0000000  0.000000000  0.00000000000  0.000000000000000
%i    0    0    0    0      0      0      0      0         0
%i    0    0    0    0      0      0      0      0         0
/* INFORMATION & ANALYSIS CENTER (IAC)      ULTRA-RAPID DATA
/* S/V CLOCKS ARE ALIGNED TO GNSS TIME                      
/* G:C1WC2W R:C1PC2P E:C1XC5X C:C2IC6I J:C1CC2S             
/* PCV:IGS20_2290 OL/AL:FES2004  NONE     YN ORB:CoN CLK:CoN
*  2024 04 05  8  0  0.00000000
PC06  -1160.261739  27493.577198 -31818.547913    323.324503
PC07 -17958.212220  32246.623627  20275.208946   -849.446559
PC08  -7964.146471  40364.070681   9692.727918      2.092709
PC09   4586.123200  29848.953303 -28695.487204   -718.931346
PC10  -9252.573364  32237.125263  25574.944705     14.649595
PC11  11665.943720 -11861.460004 -22341.599745    496.176029
PC12  25723.752909    357.395081 -10773.786521   -226.279649
PC13  -2915.654961  42147.697537   2399.831239    429.337460
PC14  16979.339988 -21582.218089   5174.811426    570.444962
PC16  -6358.161352  24235.952023 -33569.835918   -439.197312
PC19  -9674.473056  22320.604441 -13615.351520   -915.650497
PC20 -21000.837818  18180.244956   2477.745521   -328.377571
PC21  20648.033766  -2578.300611 -18590.678197   -962.200357
PC22   7930.891491  13866.569451 -22875.619378    -49.692945
PC23 -11208.537184 -24715.111860  -6497.960448   -775.507861
PC24  13108.723821 -11742.944853  21636.003822    944.939915
PC25    475.182454 -25866.949433  10424.480741    367.046327
PC26  17415.908402   8387.760426  20118.671398   -272.822087
PC27 -27131.034216  -6114.277132   2359.873054    294.640896
PC28 -19665.763695 -15054.709711 -12860.355482    225.109620
PC29  -1454.692031  16112.960081  22729.467232    264.036814
PC30 -21031.364619   7080.788384  16923.926179    -50.231200
PC32 -20575.007644   2589.730249  18683.554683   -595.934700
PC33   9601.733669 -22439.974073  13558.917038   -967.049285
PC34  19769.942527  -8149.355298 -17933.150464    405.493733
PC35  20010.274291  14421.752027  12997.748405    394.413435
PC36  -1241.050186  25768.103785 -10633.532129     41.510264
PC37 -17213.547050  -9058.547251 -19994.567074   -953.631640
PC38 -11757.395971  37053.906241  16535.118827    147.098367
PC39 -11181.388425  21312.796835 -34548.559752     -7.853965
PC40 -25246.804737  26642.040598  20493.002457    -64.025077
PC41  -7230.403970 -14545.562999  22752.105172   -918.778262
PC42  21506.006603 -17345.919830  -4008.749278   -444.029224
PC43   2547.867322 -16014.350655 -22725.306051     66.821623
PC44  27325.835906   5110.954547  -2235.754327    434.457514
PC45  11113.360233  24758.871755   6541.741043    -78.888091
PC46 -12633.008503  12580.730695 -21484.747194   -137.428965
PE02   7316.922817 -28406.439806  -3912.069883    116.946853
PE03   6951.302597 -17546.490995  22809.525339   -105.099114
PE04  15531.499244  12589.367485 -21815.521612   -366.252801
PE05  24911.446140 -12130.780275  10429.291491   4735.662402
PE07 -28338.341829   -702.672119   8513.017549   -112.829607
PE08 -14710.983718 -12848.078524  22243.852576   -250.089414
PE09  28314.402753    698.043333  -8620.778355   -395.945050
PE10  21981.403611  18474.149566  -7188.889665   -614.743364
PE11  22513.219113  10063.659175 -16367.288870   3084.280051
PE12  18161.817946  23266.135695   2039.616032   -980.173946
PE13 -22582.212982 -10679.685093  15893.509801    -20.860559
PE15 -17900.420092 -23440.744997  -2599.202790    -95.289131
PE18  31102.816054  -2584.738400   2108.887699    515.659348
PE19  -9405.015686  17267.113775 -22112.381034   -301.006824
PE21 -17110.899568  19887.598329 -13715.756417   -587.625897
PE24  17278.457970   1107.699391  23984.526969   -690.276652
PE25  17223.692598 -19557.416001  14030.000874      2.972921
PE26 -13686.255925   8774.751000  24738.964367    416.847213
PE27 -17347.220962   -637.025895 -23981.598089   -316.535917
PE30  -7230.899063 -20709.907849 -19884.658793   -166.914586
PE31   7351.509055  20556.140290  19990.085676    -20.033267
PE33   2308.586747  22035.516346  19627.994820      9.994173
PE34  -2826.187171 -22270.669754 -19298.888686   -103.926384
PE36  13982.524720  -8121.497591 -24791.434586   -209.044498
PG01 -19744.223376  -6372.643467  16432.625231    178.000941
PG02 -22054.352162 -12966.366196   8128.834785   -458.622720
PG03 -14133.620889  -3891.282878  21999.500714    293.143707
PG04 -24529.237475  -2679.401201  10022.652935    331.571457
PG05   8038.370577  17809.172145 -18120.934539   -167.997151
PG06   -595.933134  18379.580603  19183.895242    336.390857
PG07 -16554.955680   3121.060445 -20138.138145   -100.337508
PG08 -18805.716663  -7966.921760 -17307.515295    102.517404
PG09 -25278.645804   7886.425800  -2500.443039    149.323307
PG10  10581.192237 -23774.532094  -4163.910001     -5.563494
PG11   9937.534868  22672.870058   9713.961852   -627.629858
PG12  13757.265323   6090.430310  21602.565655   -493.730629
PG13  10054.255243  13533.019163 -20781.607985    640.143230
PG14 -13423.490042  21437.174405  -7737.795763    368.479514
PG15  19422.232363   6471.963941 -17517.887050    145.116152
PG16  -2901.970356 -21263.450849 -15684.186938   -324.355599
PG17 -18267.164199  13016.488123  14765.812665    711.130609
PG18  15486.483814  -4116.672069 -21202.750068   -588.895510
PG19  -9153.164410  14693.715338  19848.519745    463.842696
PG20   2279.053852  25287.314977  -8001.667664    381.327053
PG21 -21227.912541 -16658.309519   3087.055852    128.510574
PG22  -9894.732774  24816.578330    862.449292      5.176316
PG23  15148.142359 -15541.505474 -15155.433619    193.517876
PG24  21635.042424  14862.512185   4894.685850   -455.602273
PG25  16397.840012  -5472.701408  19749.949540    493.048038
PG26   3171.644163 -25900.198876  -3899.500974    170.755046
PG27  -6924.207874 -14009.163775 -21801.446216    -16.673182
PG28   2706.200090 -17260.776288  19990.200390   -191.119729
PG29  26316.598032  -3968.045843   -547.887431   -602.839473
PG30  -8384.330334  13749.959135 -20948.677155   -409.754108
PG31  -6034.197582 -21673.594092  13585.901918   -228.034697
PG32  14766.973292 -14987.593680  16295.811168   -617.622333
PJ02 -25808.258851  31967.393709  -5035.867915     -3.694131
PJ03 -26887.333483  21877.257443  29104.591040     -0.107463
PJ04 -26026.078491  31643.771101  -4184.583467 999999.999999
PR01  -1934.802612  13857.434039 -21316.651467     81.619563
PR02  13496.738792   3035.948031 -21364.123283    -22.671414
PR03  21785.533918  -9524.677452  -9109.090818     97.678095
PR04  18057.065812 -16253.190314   7792.987040    230.659125
PR05   4620.726193 -14413.667160  20543.356263    129.508302
PR07 -21953.712810  10002.849843   8404.730829     79.535042
PR08 -17850.279528  16436.396651  -7849.894551    -74.970289
PR09 -10274.417539 -15561.252147 -17430.817801    179.286830
PR11  -6289.524768  18461.519234 -16422.115992     28.957981
PR12   2762.415233  25307.390198   1738.830046     38.636799
PR13   9188.710928  17756.046989  15826.678060    -45.972716
PR14  10933.793504  -2672.577712  22899.560488     26.342209
PR15   5889.072180 -19585.688658  15264.415801     80.764692
PR16  -2731.944085 -25340.152131  -1426.186642     24.560763
PR17  21255.338402   3575.676718 -13663.622345     75.249862
PR18   9375.142083  -6731.790939 -22728.812734    135.632478
PR19  -5162.001936 -13523.404312 -21007.455700   -271.944436
PR20 -21017.375467 -13823.738594  -4368.695469   -110.777483
PR21 -21155.694505  -3747.486865  13730.966600    -90.227016
PR22  -8774.532949   7477.876452  22779.750870    115.413530
PR24  21734.995180  12814.076167   3794.892946    -50.585401
PR25 -21067.892687  -4111.370773  13772.104083    -27.166188
PR26 -18309.283444  16358.984108  -6842.237476    -26.568590
EOF
